{"fetched_at":"2026-03-29T16:36:15Z","count":15609,"tles":[{"name":"STARLINK-11299 [DTC]","line1":"1 61058U 24164J   26087.65578777 -.00000233  00000+0  29351-5 0  9995","line2":"2 61058  53.1593 218.0707 0000885  75.3403 284.7713 15.69711045 88395","category":"Starlink"}]}